STARLINK-30242          
1 57739U 23131H   26166.12395309 -.00000122  00000+0  51003-5 0  9993
2 57739  43.0235 313.3963 0001942 272.3309  87.7321 15.27578635155154
STARLINK-30331          
1 57740U 23131J   26166.56648936  .00000151  00000+0  15010-4 0  9998
2 57740  43.0018 266.6482 0001180 261.7539  98.3179 15.27574461155749
STARLINK-30364          
1 57741U 23131K   26165.22791311 -.00000204  00000+0  20977-5 0  9996
2 57741  43.0051 347.0144 0000748 301.5343  58.5436 15.27576437154682
STARLINK-30308          
1 57742U 23131L   26166.75236488  .00000199  00000+0  16772-4 0  9994
2 57742  43.0004 338.6730 0001324 274.1929  85.8771 15.27576334154922
STARLINK-30361          
1 57743U 23131M   26165.23434001 -.00000374  00000+0 -40610-5 0  9994
2 57743  43.0041 347.0645 0001429 302.1245  57.9468 15.27571894154673
STARLINK-30363          
1 57744U 23131N   26166.74776110  .00000110  00000+0  13513-4 0  9999
2 57744  43.0035 324.1651 0001242 266.1029  93.9680 15.27577102155082
STARLINK-30362          
1 57745U 23131P   26166.19343432 -.00000045  00000+0  79016-5 0  9995
2 57745  43.0058 342.2077 0001215 271.3184  88.7528 15.27571294154821
STARLINK-30350          
1 57746U 23131Q   26166.75285503  .00001038  00000+0  47272-4 0  9992
2 57746  43.0081 335.2550 0001284 263.3839  96.6867 15.27567006154954
STARLINK-30307          
1 57747U 23131R   26166.76392000  .00001122  00000+0  50282-4 0  9994
2 57747  43.0111 338.7519 0001156 262.6123  97.4598 15.27579066154913
STARLINK-30356          
1 57748U 23131S   26165.22149051 -.00001061  00000+0 -29048-4 0  9991
2 57748  43.0028 346.9631 0000773 264.9750  95.1013 15.27570730154682
STARLINK-30366          
1 57749U 23131T   26165.77819463 -.00000628  00000+0 -14153-4 0  9992
2 57749  43.0037 347.6754 0002231 269.2614  90.7982 15.25903587154724
STARLINK-30357          
1 57750U 23131U   26166.79761960  .00001686  00000+0  70772-4 0  9997
2 57750  42.9997 345.8058 0001770 257.4369 102.6285 15.27585226154827
STARLINK-30370          
1 57751U 23131V   26166.74309692  .00024521  00000+0  79782-3 0  9995
2 57751  43.0013 322.4295 0004287 295.8806  64.1605 15.31408062155108
STARLINK-30368          
1 57752U 23131W   26166.77035117 -.00001086  00000+0 -29946-4 0  9998
2 57752  43.0099 338.7700 0000912 270.9959  89.0789 15.27568880154915
STARLINK-30343          
1 57753U 23131X   26166.79377803 -.00000385  00000+0 -44831-5 0  9994
2 57753  43.0016 345.7786 0001205 272.6907  87.3807 15.27570272154836
STARLINK-30397          
1 57771U 23134A   26166.83048331 -.00000111  00000+0  54736-5 0  9994
2 57771  42.9992   0.4617 0001280 273.3230  86.7475 15.27572989154511
STARLINK-30354          
1 57772U 23134B   26166.85682942 -.00000446  00000+0 -66799-5 0  9993
2 57772  43.0001   3.2063 0002859 272.0959  87.9565 15.27569598154489
STARLINK-30383          
1 57773U 23134C   26166.85422417  .00003488  00000+0  13612-3 0  9994
2 57773  43.0047   3.1925 0001332 265.8849  94.1851 15.27603608154488
STARLINK-30384          
1 57774U 23134D   26163.32724289  .00001120  00000+0  50210-4 0  9993
2 57774  42.9963  23.1617 0000249 103.0550 257.0330 15.27581428153949
STARLINK-30305          
1 57775U 23134E   26166.83433787 -.00000344  00000+0 -29788-5 0  9999
2 57775  43.0013   0.4868 0000955 266.4407  93.6336 15.27572998154519
STARLINK-30360          
1 57776U 23134F   26166.83562596 -.00000607  00000+0 -12548-4 0  9998
2 57776  43.0084   0.5006 0000957 271.3502  88.7240 15.27570766154516
STARLINK-30355          
1 57777U 23134G   26166.82228345 -.00001849  00000+0 -57708-4 0  9995
2 57777  42.9995   3.7779 0001463 252.3195 107.7497 15.27562115154467
STARLINK-30385          
1 57778U 23134H   26166.78811305  .00001175  00000+0  52232-4 0  9992
2 57778  43.0074 348.9938 0001034 261.5569  98.5165 15.27576507154481
STARLINK-30359          
1 57779U 23134J   26166.80225797 -.00000029  00000+0  84666-5 0  9995
2 57779  43.0077 349.1378 0000165 190.9846 169.1002 15.27571110154641
STARLINK-30380          
1 57780U 23134K   26166.80863444 -.00000120  00000+0  51484-5 0  9998
2 57780  43.0065   0.2868 0001213 251.1273 108.9447 15.27575580154513
STARLINK-30369          
1 57781U 23134L   26165.82397327 -.00000906  00000+0 -23394-4 0  9993
2 57781  43.0013   5.7916 0001486 267.1717  92.8964 15.27574815154361
STARLINK-30376          
1 57782U 23134M   26164.30980635  .00001385  00000+0  59844-4 0  9995
2 57782  43.0090  14.2213 0001850 258.2625 101.8019 15.27585638154138
STARLINK-30389          
1 57783U 23134N   26166.85297273 -.00000227  00000+0  12635-5 0  9990
2 57783  43.0062   3.1789 0001514 274.9451  85.1228 15.27572211154489
STARLINK-30388          
1 57784U 23134P   26165.29446821 -.00000777  00000+0 -18719-4 0  9992
2 57784  43.0048   8.7080 0001681 247.1322 112.9352 15.27570453154284
STARLINK-30381          
1 57785U 23134Q   26166.81633806 -.00000240  00000+0  79883-6 0  9998
2 57785  43.0036   0.2556 0001515 264.7760  95.2918 15.27572535154514
