OBJECT_NAME,OBJECT_ID,EPOCH,MEAN_MOTION,ECCENTRICITY,INCLINATION,RA_OF_ASC_NODE,ARG_OF_PERICENTER,MEAN_ANOMALY,EPHEMERIS_TYPE,CLASSIFICATION_TYPE,NORAD_CAT_ID,ELEMENT_SET_NO,REV_AT_EPOCH,BSTAR,MEAN_MOTION_DOT,MEAN_MOTION_DDOT
STARLINK-30242,2023-131H,2026-06-15T02:58:29.546976,15.27578635,.00019428,43.0235,313.3963,272.3309,87.7321,0,U,57739,999,15515,.5100296E-5,-.122E-5,0
STARLINK-30331,2023-131J,2026-06-15T13:35:44.680704,15.27574461,.00011802,43.0018,266.6482,261.7539,98.3179,0,U,57740,999,15574,.15010066E-4,.151E-5,0
STARLINK-30364,2023-131K,2026-06-14T05:28:11.692704,15.27576437,.0000748,43.0051,347.0144,301.5343,58.5436,0,U,57741,999,15468,.20977E-5,-.204E-5,0
STARLINK-30308,2023-131L,2026-06-15T18:03:24.325632,15.27576334,.00013245,43.0004,338.6730,274.1929,85.8771,0,U,57742,999,15492,.16771663E-4,.199E-5,0
STARLINK-30361,2023-131M,2026-06-14T05:37:26.976864,15.27571894,.0001429,43.0041,347.0645,302.1245,57.9468,0,U,57743,999,15467,-.4061E-5,-.374E-5,0
STARLINK-30363,2023-131N,2026-06-15T17:56:46.559040,15.27577102,.00012425,43.0035,324.1651,266.1029,93.9680,0,U,57744,999,15508,.13512902E-4,.11E-5,0
STARLINK-30362,2023-131P,2026-06-15T04:38:32.725248,15.27571294,.00012159,43.0058,342.2077,271.3184,88.7528,0,U,57745,999,15482,.7901635E-5,-.45E-6,0
STARLINK-30350,2023-131Q,2026-06-15T18:04:06.674592,15.27567006,.00012842,43.0081,335.2550,263.3839,96.6867,0,U,57746,999,15495,.47271506E-4,.1038E-4,0
STARLINK-30307,2023-131R,2026-06-15T18:20:02.688000,15.27579066,.00011563,43.0111,338.7519,262.6123,97.4598,0,U,57747,999,15491,.50281518E-4,.1122E-4,0
STARLINK-30356,2023-131S,2026-06-14T05:18:56.780064,15.27570730,.0000773,43.0028,346.9631,264.9750,95.1013,0,U,57748,999,15468,-.29048E-4,-.1061E-4,0
STARLINK-30366,2023-131T,2026-06-14T18:40:36.016032,15.25903587,.00022318,43.0037,347.6754,269.2614,90.7982,0,U,57749,999,15472,-.14152863E-4,-.628E-5,0
STARLINK-30357,2023-131U,2026-06-15T19:08:34.333440,15.27585226,.00017706,42.9997,345.8058,257.4369,102.6285,0,U,57750,999,15482,.70772266E-4,.1686E-4,0
STARLINK-30370,2023-131V,2026-06-15T17:50:03.573888,15.31408062,.00042878,43.0013,322.4295,295.8806,64.1605,0,U,57751,999,15510,.79781885E-3,.24521E-3,0
STARLINK-30368,2023-131W,2026-06-15T18:29:18.341088,15.27568880,.00009122,43.0099,338.7700,270.9959,89.0789,0,U,57752,999,15491,-.29945968E-4,-.1086E-4,0
STARLINK-30343,2023-131X,2026-06-15T19:03:02.421792,15.27570272,.00012054,43.0016,345.7786,272.6907,87.3807,0,U,57753,999,15483,-.4483094E-5,-.385E-5,0
STARLINK-30397,2023-134A,2026-06-15T19:55:53.757984,15.27572989,.000128,42.9992,0.4617,273.3230,86.7475,0,U,57771,999,15451,.547364E-5,-.111E-5,0
STARLINK-30354,2023-134B,2026-06-15T20:33:50.061888,15.27569598,.00028596,43.0001,3.2063,272.0959,87.9565,0,U,57772,999,15448,-.6679943E-5,-.446E-5,0
STARLINK-30383,2023-134C,2026-06-15T20:30:04.968288,15.27603608,.00013321,43.0047,3.1925,265.8849,94.1851,0,U,57773,999,15448,.13611766E-3,.3488E-4,0
STARLINK-30384,2023-134D,2026-06-12T07:51:13.785696,15.27581428,.00002491,42.9963,23.1617,103.0550,257.0330,0,U,57774,999,15394,.50209829E-4,.112E-4,0
STARLINK-30305,2023-134E,2026-06-15T20:01:26.791968,15.27572998,.00009557,43.0013,0.4868,266.4407,93.6336,0,U,57775,999,15451,-.2978829E-5,-.344E-5,0
STARLINK-30360,2023-134F,2026-06-15T20:03:18.082944,15.27570766,.00009577,43.0084,0.5006,271.3502,88.7240,0,U,57776,999,15451,-.12547962E-4,-.607E-5,0
STARLINK-30355,2023-134G,2026-06-15T19:44:05.290080,15.27562115,.00014639,42.9995,3.7779,252.3195,107.7497,0,U,57777,999,15446,-.57708412E-4,-.1849E-4,0
STARLINK-30385,2023-134H,2026-06-15T18:54:52.967520,15.27576507,.00010344,43.0074,348.9938,261.5569,98.5165,0,U,57778,999,15448,.52232317E-4,.1175E-4,0
STARLINK-30359,2023-134J,2026-06-15T19:15:15.088608,15.27571110,.00001657,43.0077,349.1378,190.9846,169.1002,0,U,57779,999,15464,.8466639E-5,-.29E-6,0
STARLINK-30380,2023-134K,2026-06-15T19:24:26.015616,15.27575580,.00012136,43.0065,0.2868,251.1273,108.9447,0,U,57780,999,15451,.5148386E-5,-.12E-5,0
STARLINK-30369,2023-134L,2026-06-14T19:46:31.290528,15.27574815,.00014865,43.0013,5.7916,267.1717,92.8964,0,U,57781,999,15436,-.23394066E-4,-.906E-5,0
STARLINK-30376,2023-134M,2026-06-13T07:26:07.268640,15.27585638,.00018502,43.0090,14.2213,258.2625,101.8019,0,U,57782,999,15413,.59843926E-4,.1385E-4,0
STARLINK-30389,2023-134N,2026-06-15T20:28:16.843872,15.27572211,.00015148,43.0062,3.1789,274.9451,85.1228,0,U,57783,999,15448,.1263525E-5,-.227E-5,0
STARLINK-30388,2023-134P,2026-06-14T07:04:02.053344,15.27570453,.00016811,43.0048,8.7080,247.1322,112.9352,0,U,57784,999,15428,-.18719356E-4,-.777E-5,0
STARLINK-30381,2023-134Q,2026-06-15T19:35:31.608384,15.27572535,.00015155,43.0036,0.2556,264.7760,95.2918,0,U,57785,999,15451,.798835E-6,-.24E-5,0
